STARLINK-35873          
1 67860U 26034L   26073.59202181  .00423884  00000+0  20385-2 0  9996
2 67860  53.1581 186.7005 0001535  50.5034 309.6124 15.80968456  4742
STARLINK-36325          
1 67861U 26034M   26073.59126960  .00375399  00000+0  18163-2 0  9995
2 67861  53.1583 186.6946 0001491 107.8214 252.2972 15.80964835  4713
STARLINK-36332          
1 67862U 26034N   26073.59051755  .00297738  00000+0  14516-2 0  9993
2 67862  53.1580 186.6900 0001094  65.0092 295.1045 15.81008042  4716
STARLINK-36835          
1 67863U 26034P   26073.58976857  .00360009  00000+0  17457-2 0  9991
2 67863  53.1584 186.6838 0001479  73.1656 286.9529 15.80958381  4718
STARLINK-36831          
1 67864U 26034Q   26073.58901641  .00287148  00000+0  14032-2 0  9999
2 67864  53.1582 186.6792 0001128  75.3950 284.7198 15.80986837  4713
STARLINK-36738          
1 67865U 26034R   26073.58826596  .00351178  00000+0  17019-2 0  9998
2 67865  53.1581 186.6733 0001324  80.0527 280.0646 15.80993436  4719
STARLINK-36780          
1 67866U 26034S   26073.58751752  .00382297  00000+0  18467-2 0  9994
2 67866  53.1586 186.6677 0001355 108.4628 251.6542 15.80981520  4713
STARLINK-36761          
1 67867U 26034T   26073.58676653  .00427290  00000+0  20521-2 0  9998
2 67867  53.1585 186.6630 0001669  96.0551 264.0662 15.80989245  4710
STARLINK-36762          
1 67868U 26034U   26073.58601240  .00200349  00000+0  99325-3 0  9992
2 67868  53.1582 186.6585 0001485  54.1038 306.0122 15.80916193  4718
STARLINK-36779          
1 67869U 26034V   26073.58526724  .00440388  00000+0  21124-2 0  9996
2 67869  53.1587 186.6528 0001252  74.7472 285.3689 15.80980525  4710
STARLINK-36770          
1 67870U 26034W   26073.58376854  .00432009  00000+0  20763-2 0  9994
2 67870  53.1584 186.6426 0001275  96.5153 263.6015 15.80960306  4716
STARLINK-36769          
1 67871U 26034X   26073.58451575  .00538584  00000+0  25543-2 0  9995
2 67871  53.1583 186.6481 0000922  63.6843 296.4274 15.80968756  4714
STARLINK-36786          
1 67872U 26034Y   26073.58301976  .00599676  00000+0  28247-2 0  9998
2 67872  53.1581 186.6378 0001627  92.1967 267.9242 15.80959179  4712
STARLINK-36783          
1 67873U 26034Z   26073.58226705  .00556785  00000+0  26366-2 0  9999
2 67873  53.1584 186.6322 0001474  95.7319 264.3872 15.80955903  4716
STARLINK-36730          
1 67874U 26034AA  26073.58151840  .00404619  00000+0  19516-2 0  9994
2 67874  53.1583 186.6279 0001650  56.4226 303.6954 15.80956050  4716
STARLINK-36727          
1 67875U 26034AB  26073.58076729  .00589429  00000+0  27791-2 0  9994
2 67875  53.1584 186.6224 0001039  56.8763 303.2359 15.80963892  4716
