[{"OBJECT_NAME":"STARLINK-35873","OBJECT_ID":"2026-034L","EPOCH":"2026-03-14T14:12:30.684384","MEAN_MOTION":15.80968456,"ECCENTRICITY":0.00015359,"INCLINATION":53.1581,"RA_OF_ASC_NODE":186.7005,"ARG_OF_PERICENTER":50.5034,"MEAN_ANOMALY":309.6124,"EPHEMERIS_TYPE":0,"CLASSIFICATION_TYPE":"U","NORAD_CAT_ID":67860,"ELEMENT_SET_NO":999,"REV_AT_EPOCH":474,"BSTAR":0.0020385192,"MEAN_MOTION_DOT":0.00423884,"MEAN_MOTION_DDOT":0},{"OBJECT_NAME":"STARLINK-36325","OBJECT_ID":"2026-034M","EPOCH":"2026-03-14T14:11:25.693440","MEAN_MOTION":15.80964835,"ECCENTRICITY":0.00014913,"INCLINATION":53.1583,"RA_OF_ASC_NODE":186.6946,"ARG_OF_PERICENTER":107.8214,"MEAN_ANOMALY":252.2972,"EPHEMERIS_TYPE":0,"CLASSIFICATION_TYPE":"U","NORAD_CAT_ID":67861,"ELEMENT_SET_NO":999,"REV_AT_EPOCH":471,"BSTAR":0.0018163411,"MEAN_MOTION_DOT":0.00375399,"MEAN_MOTION_DDOT":0},{"OBJECT_NAME":"STARLINK-36332","OBJECT_ID":"2026-034N","EPOCH":"2026-03-14T14:10:20.716320","MEAN_MOTION":15.81008042,"ECCENTRICITY":0.00010948,"INCLINATION":53.158,"RA_OF_ASC_NODE":186.69,"ARG_OF_PERICENTER":65.0092,"MEAN_ANOMALY":295.1045,"EPHEMERIS_TYPE":0,"CLASSIFICATION_TYPE":"U","NORAD_CAT_ID":67862,"ELEMENT_SET_NO":999,"REV_AT_EPOCH":471,"BSTAR":0.0014515505,"MEAN_MOTION_DOT":0.00297738,"MEAN_MOTION_DDOT":0},{"OBJECT_NAME":"STARLINK-36835","OBJECT_ID":"2026-034P","EPOCH":"2026-03-14T14:09:16.004448","MEAN_MOTION":15.80958381,"ECCENTRICITY":0.0001479,"INCLINATION":53.1584,"RA_OF_ASC_NODE":186.6838,"ARG_OF_PERICENTER":73.1656,"MEAN_ANOMALY":286.9529,"EPHEMERIS_TYPE":0,"CLASSIFICATION_TYPE":"U","NORAD_CAT_ID":67863,"ELEMENT_SET_NO":999,"REV_AT_EPOCH":471,"BSTAR":0.0017456779,"MEAN_MOTION_DOT":0.00360009,"MEAN_MOTION_DDOT":0},{"OBJECT_NAME":"STARLINK-36831","OBJECT_ID":"2026-034Q","EPOCH":"2026-03-14T14:08:11.017824","MEAN_MOTION":15.80986837,"ECCENTRICITY":0.00011285,"INCLINATION":53.1582,"RA_OF_ASC_NODE":186.6792,"ARG_OF_PERICENTER":75.395,"MEAN_ANOMALY":284.7198,"EPHEMERIS_TYPE":0,"CLASSIFICATION_TYPE":"U","NORAD_CAT_ID":67864,"ELEMENT_SET_NO":999,"REV_AT_EPOCH":471,"BSTAR":0.0014031516,"MEAN_MOTION_DOT":0.00287148,"MEAN_MOTION_DDOT":0},{"OBJECT_NAME":"STARLINK-36738","OBJECT_ID":"2026-034R","EPOCH":"2026-03-14T14:07:06.178944","MEAN_MOTION":15.80993436,"ECCENTRICITY":0.00013242,"INCLINATION":53.1581,"RA_OF_ASC_NODE":186.6733,"ARG_OF_PERICENTER":80.0527,"MEAN_ANOMALY":280.0646,"EPHEMERIS_TYPE":0,"CLASSIFICATION_TYPE":"U","NORAD_CAT_ID":67865,"ELEMENT_SET_NO":999,"REV_AT_EPOCH":471,"BSTAR":0.0017019495,"MEAN_MOTION_DOT":0.00351178,"MEAN_MOTION_DDOT":0},{"OBJECT_NAME":"STARLINK-36780","OBJECT_ID":"2026-034S","EPOCH":"2026-03-14T14:06:01.513728","MEAN_MOTION":15.8098152,"ECCENTRICITY":0.00013555,"INCLINATION":53.1586,"RA_OF_ASC_NODE":186.6677,"ARG_OF_PERICENTER":108.4628,"MEAN_ANOMALY":251.6542,"EPHEMERIS_TYPE":0,"CLASSIFICATION_TYPE":"U","NORAD_CAT_ID":67866,"ELEMENT_SET_NO":999,"REV_AT_EPOCH":471,"BSTAR":0.0018467269,"MEAN_MOTION_DOT":0.00382297,"MEAN_MOTION_DDOT":0},{"OBJECT_NAME":"STARLINK-36761","OBJECT_ID":"2026-034T","EPOCH":"2026-03-14T14:04:56.628192","MEAN_MOTION":15.80989245,"ECCENTRICITY":0.00016693,"INCLINATION":53.1585,"RA_OF_ASC_NODE":186.663,"ARG_OF_PERICENTER":96.0551,"MEAN_ANOMALY":264.0662,"EPHEMERIS_TYPE":0,"CLASSIFICATION_TYPE":"U","NORAD_CAT_ID":67867,"ELEMENT_SET_NO":999,"REV_AT_EPOCH":471,"BSTAR":0.0020521065,"MEAN_MOTION_DOT":0.0042729,"MEAN_MOTION_DDOT":0},{"OBJECT_NAME":"STARLINK-36762","OBJECT_ID":"2026-034U","EPOCH":"2026-03-14T14:03:51.471360","MEAN_MOTION":15.80916193,"ECCENTRICITY":0.00014856,"INCLINATION":53.1582,"RA_OF_ASC_NODE":186.6585,"ARG_OF_PERICENTER":54.1038,"MEAN_ANOMALY":306.0122,"EPHEMERIS_TYPE":0,"CLASSIFICATION_TYPE":"U","NORAD_CAT_ID":67868,"ELEMENT_SET_NO":999,"REV_AT_EPOCH":471,"BSTAR":0.00099324803,"MEAN_MOTION_DOT":0.00200349,"MEAN_MOTION_DDOT":0},{"OBJECT_NAME":"STARLINK-36779","OBJECT_ID":"2026-034V","EPOCH":"2026-03-14T14:02:47.089536","MEAN_MOTION":15.80980525,"ECCENTRICITY":0.00012522,"INCLINATION":53.1587,"RA_OF_ASC_NODE":186.6528,"ARG_OF_PERICENTER":74.7472,"MEAN_ANOMALY":285.3689,"EPHEMERIS_TYPE":0,"CLASSIFICATION_TYPE":"U","NORAD_CAT_ID":67869,"ELEMENT_SET_NO":999,"REV_AT_EPOCH":471,"BSTAR":0.0021124484,"MEAN_MOTION_DOT":0.00440388,"MEAN_MOTION_DDOT":0},{"OBJECT_NAME":"STARLINK-36770","OBJECT_ID":"2026-034W","EPOCH":"2026-03-14T14:00:37.601856","MEAN_MOTION":15.80960306,"ECCENTRICITY":0.0001275,"INCLINATION":53.1584,"RA_OF_ASC_NODE":186.6426,"ARG_OF_PERICENTER":96.5153,"MEAN_ANOMALY":263.6015,"EPHEMERIS_TYPE":0,"CLASSIFICATION_TYPE":"U","NORAD_CAT_ID":67870,"ELEMENT_SET_NO":999,"REV_AT_EPOCH":471,"BSTAR":0.0020762946,"MEAN_MOTION_DOT":0.00432009,"MEAN_MOTION_DDOT":0},{"OBJECT_NAME":"STARLINK-36769","OBJECT_ID":"2026-034X","EPOCH":"2026-03-14T14:01:42.160800","MEAN_MOTION":15.80968756,"ECCENTRICITY":9.224e-5,"INCLINATION":53.1583,"RA_OF_ASC_NODE":186.6481,"ARG_OF_PERICENTER":63.6843,"MEAN_ANOMALY":296.4274,"EPHEMERIS_TYPE":0,"CLASSIFICATION_TYPE":"U","NORAD_CAT_ID":67871,"ELEMENT_SET_NO":999,"REV_AT_EPOCH":471,"BSTAR":0.0025543007,"MEAN_MOTION_DOT":0.00538584,"MEAN_MOTION_DDOT":0},{"OBJECT_NAME":"STARLINK-36786","OBJECT_ID":"2026-034Y","EPOCH":"2026-03-14T13:59:32.907264","MEAN_MOTION":15.80959179,"ECCENTRICITY":0.00016273,"INCLINATION":53.1581,"RA_OF_ASC_NODE":186.6378,"ARG_OF_PERICENTER":92.1967,"MEAN_ANOMALY":267.9242,"EPHEMERIS_TYPE":0,"CLASSIFICATION_TYPE":"U","NORAD_CAT_ID":67872,"ELEMENT_SET_NO":999,"REV_AT_EPOCH":471,"BSTAR":0.0028247304,"MEAN_MOTION_DOT":0.00599676,"MEAN_MOTION_DDOT":0},{"OBJECT_NAME":"STARLINK-36783","OBJECT_ID":"2026-034Z","EPOCH":"2026-03-14T13:58:27.873120","MEAN_MOTION":15.80955903,"ECCENTRICITY":0.00014745,"INCLINATION":53.1584,"RA_OF_ASC_NODE":186.6322,"ARG_OF_PERICENTER":95.7319,"MEAN_ANOMALY":264.3872,"EPHEMERIS_TYPE":0,"CLASSIFICATION_TYPE":"U","NORAD_CAT_ID":67873,"ELEMENT_SET_NO":999,"REV_AT_EPOCH":471,"BSTAR":0.0026365795,"MEAN_MOTION_DOT":0.00556785,"MEAN_MOTION_DDOT":0},{"OBJECT_NAME":"STARLINK-36730","OBJECT_ID":"2026-034AA","EPOCH":"2026-03-14T13:57:23.189760","MEAN_MOTION":15.8095605,"ECCENTRICITY":0.00016504,"INCLINATION":53.1583,"RA_OF_ASC_NODE":186.6279,"ARG_OF_PERICENTER":56.4226,"MEAN_ANOMALY":303.6954,"EPHEMERIS_TYPE":0,"CLASSIFICATION_TYPE":"U","NORAD_CAT_ID":67874,"ELEMENT_SET_NO":999,"REV_AT_EPOCH":471,"BSTAR":0.0019515559,"MEAN_MOTION_DOT":0.00404619,"MEAN_MOTION_DDOT":0},{"OBJECT_NAME":"STARLINK-36727","OBJECT_ID":"2026-034AB","EPOCH":"2026-03-14T13:56:18.293856","MEAN_MOTION":15.80963892,"ECCENTRICITY":0.00010395,"INCLINATION":53.1584,"RA_OF_ASC_NODE":186.6224,"ARG_OF_PERICENTER":56.8763,"MEAN_ANOMALY":303.2359,"EPHEMERIS_TYPE":0,"CLASSIFICATION_TYPE":"U","NORAD_CAT_ID":67875,"ELEMENT_SET_NO":999,"REV_AT_EPOCH":471,"BSTAR":0.0027790644,"MEAN_MOTION_DOT":0.00589429,"MEAN_MOTION_DDOT":0}]
